OBJECT_NAME,OBJECT_ID,EPOCH,MEAN_MOTION,ECCENTRICITY,INCLINATION,RA_OF_ASC_NODE,ARG_OF_PERICENTER,MEAN_ANOMALY,EPHEMERIS_TYPE,CLASSIFICATION_TYPE,NORAD_CAT_ID,ELEMENT_SET_NO,REV_AT_EPOCH,BSTAR,MEAN_MOTION_DOT,MEAN_MOTION_DDOT
STARLINK-30996,2024-038A,2026-06-20T01:23:09.046176,15.27608206,.00018919,43.0025,168.9344,281.2303,78.8336,0,U,59023,999,13178,.80212572E-4,.1947E-4,0
STARLINK-31006,2024-038B,2026-06-20T06:00:02.000160,15.27551188,.00012359,43.0030,117.4071,281.8355,162.4318,0,U,59024,999,586,.17975707E-2,.49492E-3,0
STARLINK-31178,2024-038C,2026-06-20T00:03:51.712704,15.27580125,.00015191,43.0018,169.3781,275.3482,84.7196,0,U,59025,999,13029,.66915062E-4,.158E-4,0
STARLINK-30863,2024-038E,2026-06-20T00:35:19.675392,15.27566160,.00013478,43.0012,169.5297,280.3986,79.6714,0,U,59027,999,13029,-.2647222E-4,-.99E-5,0
STARLINK-31206,2024-038F,2026-06-20T04:48:55.730592,15.27572887,.00013533,43.0055,103.0880,272.4530,87.6167,0,U,59028,999,13120,.59492888E-4,.1375E-4,0
STARLINK-31224,2024-038G,2026-06-20T07:13:56.087040,15.27578384,.00011457,43.0017,167.3211,278.3555,81.7167,0,U,59029,999,13045,.50133566E-4,.1118E-4,0
STARLINK-31186,2024-038H,2026-06-20T01:43:34.084128,15.27578987,.00015651,43.0031,169.0368,275.0668,85.0005,0,U,59030,999,13041,.30136524E-4,.567E-5,0
STARLINK-31211,2024-038J,2026-06-20T00:49:54.442560,15.27576424,.00010664,43.0012,168.7580,274.3776,85.6954,0,U,59031,999,13030,.24464819E-4,.411E-5,0
STARLINK-30862,2024-038K,2026-06-20T00:24:15.336288,15.27578676,.00015193,43.0038,158.2898,283.5867,76.4816,0,U,59032,999,13042,.23677264E-4,.389E-5,0
STARLINK-31210,2024-038L,2026-06-20T01:27:36.951840,15.27579509,.00014885,43.0021,165.5073,271.2987,88.7694,0,U,59033,999,13051,.46819865E-4,.1026E-4,0
STARLINK-31231,2024-038M,2026-06-19T11:14:39.180192,15.27579604,.00014056,43.0018,168.8006,268.2945,91.7746,0,U,59034,999,13025,.55064822E-4,.1253E-4,0
STARLINK-31207,2024-038N,2026-06-20T05:58:58.977408,15.27578766,.00013543,43.0017,164.3402,264.7377,95.3320,0,U,59035,999,13054,.51994416E-4,.1169E-4,0
STARLINK-31217,2024-038P,2026-06-20T02:32:36.829248,15.27577819,.00009888,43.0029,70.8253,274.8592,85.2147,0,U,59036,999,13160,.46132934E-4,.1008E-4,0
STARLINK-31208,2024-038Q,2026-06-19T23:06:43.176672,15.27568298,.0000452,42.9979,169.9069,254.0235,106.0567,0,U,59037,999,13045,-.751801E-5,-.468E-5,0
STARLINK-31235,2024-038R,2026-06-20T05:55:16.693536,15.27579557,.00015793,43.0012,164.3195,272.0781,87.9890,0,U,59038,999,13048,.53102833E-4,.1199E-4,0
STARLINK-31220,2024-038S,2026-06-20T01:15:48.528000,15.27577979,.00016031,43.0031,168.8922,275.2592,84.8077,0,U,59039,999,13041,.35942017E-4,.727E-5,0
STARLINK-31225,2024-038T,2026-06-20T00:52:27.004224,15.27581726,.0001052,43.0012,165.2859,258.6659,101.4075,0,U,59040,999,13034,.10377999E-3,.2595E-4,0
STARLINK-31240,2024-038U,2026-06-19T06:58:05.390688,15.27580452,.00010366,43.0006,170.0443,272.3203,87.7530,0,U,59041,999,13033,.35063179E-4,.703E-5,0
STARLINK-31202,2024-038V,2026-06-20T01:32:56.799456,15.28784419,.00028126,43.0014,164.6843,194.5714,165.5058,0,U,59042,999,13052,.22957882E-3,.6295E-4,0
STARLINK-31234,2024-038W,2026-06-20T00:04:31.290816,15.27611236,.00012144,43.0013,165.9322,294.5178,65.5547,0,U,59043,999,13033,.59132558E-4,.1367E-4,0
STARLINK-31153,2024-038X,2026-06-20T01:07:15.538368,15.27578527,.00017261,43.0026,165.3992,274.6720,85.3935,0,U,59044,999,13034,.5109444E-4,.1144E-4,0
STARLINK-31241,2024-038Y,2026-06-20T01:44:16.515168,15.27635612,.000196,43.0001,165.5906,278.7772,81.2858,0,U,59045,999,13051,-.4054799E-3,-.11423E-3,0
STARLINK-31205,2024-038Z,2026-06-20T01:33:09.059616,15.27590459,.00011531,42.9923,165.5245,261.8037,98.2684,0,U,59046,999,13045,.8809133E-4,.2164E-4,0
STARLINK-31265,2024-041A,2026-06-20T02:23:05.128224,15.27589622,.00008194,43.0029,92.3595,284.2639,75.8121,0,U,59074,999,12993,.11467905E-4,.54E-6,0
STARLINK-31276,2024-041B,2026-06-20T04:45:08.019072,15.27577813,.00012282,43.0006,91.3810,270.5592,89.5119,0,U,59075,999,13000,.18261084E-4,.24E-5,0
STARLINK-31259,2024-041C,2026-06-20T04:50:43.353024,15.27568808,.00001804,42.9977,91.4118,335.2564,24.8278,0,U,59076,999,12890,-.2364727E-5,-.327E-5,0
STARLINK-31281,2024-041D,2026-06-19T11:40:31.505664,15.27581593,.00005629,43.0042,95.5009,281.8615,78.2173,0,U,59077,999,12989,.51799359E-4,.1164E-4,0
STARLINK-31274,2024-041E,2026-06-20T04:04:38.212608,15.27580400,.00013851,43.0059,92.0230,268.0988,91.9705,0,U,59078,999,12994,.44588599E-4,.965E-5,0
STARLINK-31257,2024-041F,2026-06-19T19:49:48.461376,15.27579683,.00010013,43.0042,93.7480,264.1432,95.9306,0,U,59079,999,12989,.51515263E-4,.1156E-4,0
STARLINK-31292,2024-041H,2026-06-19T11:46:04.465344,15.27577032,.00009276,43.0034,95.5291,283.5667,76.5082,0,U,59081,999,12983,.26929003E-4,.479E-5,0
STARLINK-31286,2024-041J,2026-06-20T03:33:10.939392,15.27587659,.00018619,42.9996,91.8685,258.8116,101.2527,0,U,59082,999,13002,-.19017387E-4,-.786E-5,0
STARLINK-31252,2024-041K,2026-06-20T06:32:40.157664,15.27582557,.0001371,43.0052,8.1851,270.8318,89.2376,0,U,59083,999,13096,.29959174E-4,.562E-5,0
STARLINK-31261,2024-041L,2026-06-20T02:39:43.993440,15.27582467,.00012481,43.0050,92.4412,276.2777,83.7932,0,U,59084,999,12998,.3573878E-4,.721E-5,0
STARLINK-31290,2024-041M,2026-06-20T01:35:54.689280,15.27559672,.00012105,43.0045,78.2676,276.3860,83.6853,0,U,59085,999,13023,.25520154E-4,.44E-5,0
STARLINK-31279,2024-041N,2026-06-20T04:34:14.323584,15.27584834,.0001186,43.0020,92.1763,273.5618,86.5098,0,U,59086,999,12999,.79126681E-4,.1916E-4,0
STARLINK-31266,2024-041P,2026-06-19T04:06:23.576544,15.27576390,.00009619,43.0022,97.4345,265.7424,94.3318,0,U,59087,999,12984,.28829809E-4,.531E-5,0
STARLINK-31313,2024-041Q,2026-06-20T03:42:26.067168,15.27574732,.00007721,43.0021,91.9143,281.7153,78.3612,0,U,59088,999,12994,.67011091E-4,.1582E-4,0
STARLINK-31307,2024-041R,2026-06-20T03:36:52.024896,15.27577289,.00009827,43.0022,91.8883,268.7673,91.3066,0,U,59089,999,12999,.11038105E-3,.2776E-4,0
STARLINK-31316,2024-041S,2026-06-20T00:33:30.917664,15.27577956,.00013395,43.0027,45.9643,268.5582,91.5116,0,U,59090,999,13040,.50405845E-4,.1125E-4,0
STARLINK-31310,2024-041U,2026-06-20T00:01:02.379072,15.27561141,.00021887,43.0013,93.3296,278.4269,81.6335,0,U,59092,999,12991,-.6281695E-4,-.199E-4,0
STARLINK-31343,2024-041V,2026-06-20T02:50:50.147808,15.27568526,.000262,43.0039,92.4948,242.3442,117.7144,0,U,59093,999,12998,-.52252381E-4,-.17E-4,0
STARLINK-31295,2024-041X,2026-06-19T23:11:04.214400,15.27576509,.00015383,43.0061,93.0727,273.2881,86.7794,0,U,59095,999,12991,.51143516E-4,.1145E-4,0
STARLINK-31291,2024-041Y,2026-06-20T03:49:49.748448,15.27582962,.00008835,43.0032,91.9446,273.4002,86.6748,0,U,59096,999,12994,.6140725E-4,.1428E-4,0
STARLINK-31312,2024-044A,2026-06-20T02:30:02.354688,15.27577956,.00010679,42.9992,197.9439,276.2204,83.8526,0,U,59152,999,12984,.1980321E-4,.283E-5,0
STARLINK-31308,2024-044B,2026-06-20T01:30:22.161600,15.27574671,.00010365,43.0016,202.0458,266.0808,93.9925,0,U,59153,999,12980,.33829961E-4,.669E-5,0
STARLINK-31270,2024-044C,2026-06-20T06:35:37.529952,15.27595539,.0001089,43.0045,247.7729,268.7073,91.3654,0,U,59154,999,12928,.12643086E-3,.322E-4,0
STARLINK-31341,2024-044D,2026-06-19T16:47:53.322144,15.27581128,.00011867,43.0008,254.6395,235.0763,124.9978,0,U,59155,999,12912,.56341715E-4,.1289E-4,0
STARLINK-31338,2024-044E,2026-06-20T06:49:44.986944,15.27579571,.0001425,43.0017,251.2872,264.8598,95.2091,0,U,59156,999,12921,.30546099E-4,.578E-5,0
STARLINK-31334,2024-044F,2026-06-19T16:31:14.946816,15.27586656,.00014468,43.0020,254.5509,252.4903,107.5791,0,U,59157,999,12912,-.4759394E-5,-.393E-5,0
STARLINK-31297,2024-044G,2026-06-19T16:33:47.472192,15.27579377,.00010062,43.0012,251.1225,261.1491,98.9247,0,U,59158,999,12919,.15992966E-4,.178E-5,0
STARLINK-31182,2024-044H,2026-06-20T05:47:32.383392,15.27578986,.00012547,43.0001,247.5197,276.8264,83.2445,0,U,59159,999,12928,.6043485E-5,-.96E-6,0
STARLINK-31327,2024-044J,2026-06-20T06:44:54.290688,15.27581713,.00012984,43.0008,247.8167,252.0350,108.0360,0,U,59160,999,12928,.16261788E-4,.185E-5,0
STARLINK-31256,2024-044K,2026-06-20T05:53:05.331840,15.27574754,.00015756,42.9980,247.5388,275.8492,84.2180,0,U,59161,999,12928,.20902597E-4,.313E-5,0
STARLINK-31272,2024-044L,2026-06-20T05:58:39.391392,15.27473103,.00008443,43.0008,247.5753,238.1537,121.9233,0,U,59162,999,12925,.74636051E-3,.20266E-3,0
STARLINK-31278,2024-044M,2026-06-20T06:04:11.747136,15.27571268,.00009646,43.0009,247.6043,242.2793,117.7961,0,U,59163,999,12925,.35526883E-4,.716E-5,0
STARLINK-31309,2024-044N,2026-06-20T04:35:35.339136,15.27575940,.0002642,43.0088,248.0083,286.9217,73.1345,0,U,59164,999,12927,.21003868E-4,.315E-5,0
STARLINK-31325,2024-044P,2026-06-19T06:41:07.176192,15.27567814,.00013343,43.0016,253.1917,273.5180,86.5519,0,U,59165,999,12910,-.20278193E-4,-.82E-5,0
STARLINK-31342,2024-044Q,2026-06-20T06:18:58.812480,15.27581059,.00015297,43.0072,247.6870,286.6612,73.4072,0,U,59166,999,12928,.8254846E-4,.201E-4,0
STARLINK-31298,2024-044R,2026-06-20T04:50:23.349696,15.27578341,.00012956,43.0018,248.0790,269.9947,90.0756,0,U,59167,999,12924,.17856901E-4,.229E-5,0
STARLINK-31322,2024-044S,2026-06-19T12:11:42.305856,15.27565504,.00017521,43.0027,252.3292,280.8367,79.2287,0,U,59168,999,12916,-.34944663E-4,-.1223E-4,0
STARLINK-31329,2024-044T,2026-06-20T06:50:29.969376,15.27550779,.00014925,43.0017,247.8443,269.7531,90.3150,0,U,59169,999,12925,-.1055235E-3,-.3162E-4,0
STARLINK-31340,2024-044U,2026-06-20T02:07:49.524960,15.27578648,.00019571,43.0054,209.1821,286.5506,73.5131,0,U,59170,999,12968,.2263816E-5,-.2E-5,0
STARLINK-31344,2024-044V,2026-06-20T05:21:51.480864,15.27580576,.00020187,43.0028,248.2398,255.6174,104.4454,0,U,59171,999,12927,.66934338E-4,.158E-4,0
STARLINK-31348,2024-044W,2026-06-20T03:06:22.664736,15.27581775,.00011739,42.9998,201.6834,267.3847,92.6870,0,U,59172,999,12977,.23132079E-3,.6109E-4,0
